{
"type": "FeatureCollection",
"features": [
{
"type": "Feature",
"properties": {"nome": "Norte"},
"geometry": {
"type": "Polygon",
"coordinates": [[
[-74,5],[-50,5],[-50,-7],[-74,-7],[-74,5]
]]
}
},
{
"type": "Feature",
"properties": {"nome": "Nordeste"},
"geometry": {
"type": "Polygon",
"coordinates": [[
[-50,5],[-34,5],[-34,-20],[-50,-20],[-50,5]
]]
}
},
{
"type": "Feature",
"properties": {"nome": "Centro-Oeste"},
"geometry": {
"type": "Polygon",
"coordinates": [[
[-60,-7],[-45,-7],[-45,-25],[-60,-25],[-60,-7]
]]
}
},
{
"type": "Feature",
"properties": {"nome": "Sudeste"},
"geometry": {
"type": "Polygon",
"coordinates": [[
[-50,-15],[-39,-15],[-39,-30],[-50,-30],[-50,-15]
]]
}
},
{
"type": "Feature",
"properties": {"nome": "Sul"},
"geometry": {
"type": "Polygon",
"coordinates": [[
[-58,-25],[-48,-25],[-48,-35],[-58,-35],[-58,-25]
]]
}
}
]
}
